NORAD_CAT_ID,OBJECT_NAME,OBJECT_TYPE,EPOCH,MEAN_MOTION,ECCENTRICITY,INCLINATION,RA_OF_ASC_NODE,ARG_OF_PERICENTER,MEAN_ANOMALY,BSTAR,MEAN_MOTION_DOT,MEAN_MOTION_DDOT,TLE_LINE0,TLE_LINE1,TLE_LINE2,SEMIMAJOR_AXIS,PERIOD,APOGEE,PERIGEE,DECAYED
54058.0,STARLINK-5167,PAYLOAD,2023-12-25 00:15:05,15.08838366,0.0001788,53.2176,0.97,83.8535,276.2661,3.2481e-05,2.29e-06,0.0,0 STARLINK-5167,1 54058U 22136H   23359.01048391  .00000229  00000-0  32481-4 0  9999,2 54058  53.2176   0.9700 0001788  83.8535 276.2661 15.08838366 65694,6917.885,95.438,540.987,538.513,0.0
54058.0,STARLINK-5167,PAYLOAD,2023-12-25 06:36:38,15.08838475,0.0001698,53.2177,359.7812,78.8153,281.303,3.3058e-05,2.38e-06,0.0,0 STARLINK-5167,1 54058U 22136H   23359.27544441  .00000238  00000-0  33058-4 0  9995,2 54058  53.2177 359.7812 0001698  78.8153 281.3030 15.08838475 65254,6917.885,95.438,540.925,538.575,0.0
54058.0,STARLINK-5167,PAYLOAD,2023-12-26 03:16:38,15.08842644,0.0001783,53.2184,355.913,113.4734,246.6446,6.3609e-05,7.24e-06,0.0,0 STARLINK-5167,1 54058U 22136H   23360.13655881  .00000724  00000-0  63609-4 0  9998,2 54058  53.2184 355.9130 0001783 113.4734 246.6446 15.08842644 65864,6917.872,95.437,540.971,538.504,0.0
54058.0,STARLINK-5167,PAYLOAD,2023-12-26 06:27:24,15.08845567,0.0001649,53.2184,355.3177,102.5429,257.5748,9.2104e-05,1.178e-05,0.0,0 STARLINK-5167,1 54058U 22136H   23360.26903777  .00001178  00000-0  92104-4 0  9998,2 54058  53.2184 355.3177 0001649 102.5429 257.5748 15.08845567 65403,6917.863,95.437,540.869,538.588,0.0
54058.0,STARLINK-5167,PAYLOAD,2023-12-27 03:07:26,15.08838434,0.0001831,53.2187,351.4527,108.3273,251.7918,7.1689e-05,8.53e-06,0.0,0 STARLINK-5167,1 54058U 22136H   23361.13016304  .00000853  00000-0  71689-4 0  9990,2 54058  53.2187 351.4527 0001831 108.3273 251.7918 15.08838434 66014,6917.885,95.438,541.017,538.484,0.0
54058.0,STARLINK-5167,PAYLOAD,2023-12-27 06:18:12,15.08840887,0.0001812,53.2195,350.8583,106.4544,253.6647,9.3611e-05,1.202e-05,0.0,0 STARLINK-5167,1 54058U 22136H   23361.26264131  .00001202  00000-0  93611-4 0  9995,2 54058  53.2195 350.8583 0001812 106.4544 253.6647 15.08840887 65550,6917.878,95.437,540.996,538.489,0.0
54058.0,STARLINK-5167,PAYLOAD,2023-12-28 06:08:59,15.08842838,0.0002011,53.2193,346.3964,113.4179,246.7025,2.349e-05,8.6e-07,0.0,0 STARLINK-5167,1 54058U 22136H   23362.25624205  .00000086  00000-0  23490-4 0  9994,2 54058  53.2193 346.3964 0002011 113.4179 246.7025 15.08842838 66186,6917.872,95.437,541.128,538.346,0.0
54058.0,STARLINK-5167,PAYLOAD,2023-12-29 02:49:00,15.08835812,0.0001731,53.2187,342.5299,106.3164,253.8019,2.9735e-05,1.85e-06,0.0,0 STARLINK-5167,1 54058U 22136H   23363.11736759  .00000185  00000-0  29735-4 0  9996,2 54058  53.2187 342.5299 0001731 106.3164 253.8019 15.08835812 66312,6917.893,95.438,540.956,538.561,0.0
54058.0,STARLINK-5167,PAYLOAD,2023-12-29 05:59:46,15.08851986,0.0001601,53.2191,341.9366,103.6558,256.4613,-0.00020287,-3.516e-05,0.0,0 STARLINK-5167,1 54058U 22136H   23363.24984394 -.00003516  00000-0 -20287-3 0  9995,2 54058  53.2191 341.9366 0001601 103.6558 256.4613 15.08851986 66339,6917.844,95.437,540.816,538.601,0.0
54058.0,STARLINK-5167,PAYLOAD,2023-12-30 07:25:56,15.08848178,0.0001643,53.2192,337.1783,98.7569,261.3609,0.00014024,1.945e-05,0.0,0 STARLINK-5167,1 54058U 22136H   23364.30967900  .00001945  00000-0  14024-3 0  9991,2 54058  53.2192 337.1783 0001643  98.7569 261.3609 15.08848178 66498,6917.855,95.437,540.857,538.584,0.0
54058.0,STARLINK-5167,PAYLOAD,2023-12-31 04:05:57,15.08836872,0.0001778,53.2185,333.3117,124.0881,236.028,6.3358e-05,7.2e-06,0.0,0 STARLINK-5167,1 54058U 22136H   23365.17080737  .00000720  00000-0  63358-4 0  9996,2 54058  53.2185 333.3117 0001778 124.0881 236.0280 15.08836872 66625,6917.89,95.438,540.985,538.525,0.0
54058.0,STARLINK-5167,PAYLOAD,2023-12-31 07:16:44,15.08839304,0.00015,53.2187,332.7151,84.9538,275.1626,9.6591e-05,1.25e-05,0.0,0 STARLINK-5167,1 54058U 22136H   23365.30328845  .00001250  00000-0  96591-4 0  9990,2 54058  53.2187 332.7151 0001500  84.9538 275.1626 15.08839304 66164,6917.883,95.438,540.785,538.71,0.0
54058.0,STARLINK-5167,PAYLOAD,2024-01-01 07:07:30,15.08847774,0.0001649,53.2198,328.2484,84.5764,275.5416,3.6593e-05,2.94e-06,0.0,0 STARLINK-5167,1 54058U 22136H   24001.29688513  .00000294  00000-0  36593-4 0  9990,2 54058  53.2198 328.2484 0001649  84.5764 275.5416 15.08847774 66796,6917.857,95.437,540.862,538.581,0.0
54058.0,STARLINK-5167,PAYLOAD,2024-01-02 03:47:31,15.0884306,0.0001941,53.2198,324.3879,65.9298,294.1897,9.1917e-05,1.175e-05,0.0,0 STARLINK-5167,1 54058U 22136H   24002.15800788  .00001175  00000-0  91917-4 0  9996,2 54058  53.2198 324.3879 0001941  65.9298 294.1897 15.08843060 66920,6917.871,95.437,541.079,538.393,0.0
54058.0,STARLINK-5167,PAYLOAD,2024-01-02 06:58:17,15.08845648,0.0001776,53.2196,323.794,86.9696,273.1499,0.00010196,1.335e-05,0.0,0 STARLINK-5167,1 54058U 22136H   24002.29048468  .00001335  00000-0  10196-3 0  9997,2 54058  53.2196 323.7940 0001776  86.9696 273.1499 15.08845648 66469,6917.863,95.437,540.957,538.5,0.0
54058.0,STARLINK-5167,PAYLOAD,2024-01-03 03:38:18,15.08850079,0.000165,53.2196,319.9299,79.6103,280.5075,3.7223e-05,3.05e-06,0.0,0 STARLINK-5167,1 54058U 22136H   24003.15160197  .00000305  00000-0  37223-4 0  9994,2 54058  53.2196 319.9299 0001650  79.6103 280.5075 15.08850079 66596,6917.85,95.437,540.856,538.573,0.0
54058.0,STARLINK-5167,PAYLOAD,2024-01-04 03:29:05,15.08841358,0.0001421,53.2187,315.4693,107.7913,252.3234,-4.2623e-05,-9.66e-06,0.0,0 STARLINK-5167,1 54058U 22136H   24004.14520794 -.00000966  00000-0 -42623-4 0  9992,2 54058  53.2187 315.4693 0001421 107.7913 252.3234 15.08841358 67228,6917.876,95.437,540.724,538.758,0.0
54058.0,STARLINK-5167,PAYLOAD,2024-01-04 06:39:52,15.08840719,0.0001458,53.2186,314.8746,106.55,253.5653,-3.9648e-05,-9.19e-06,0.0,0 STARLINK-5167,1 54058U 22136H   24004.27768810 -.00000919  00000-0 -39648-4 0  9990,2 54058  53.2186 314.8746 0001458 106.5500 253.5653 15.08840719 66764,6917.878,95.438,540.752,538.735,0.0
54058.0,STARLINK-5167,PAYLOAD,2024-01-05 01:44:29,15.08845847,0.0001334,53.2177,311.3073,88.0898,272.0247,-1.5867e-05,-5.4e-06,0.0,0 STARLINK-5167,1 54058U 22136H   24005.07256637 -.00000540  00000-0 -15867-4 0  9995,2 54058  53.2177 311.3073 0001334  88.0898 272.0247 15.08845847 66881,6917.863,95.437,540.65,538.805,0.0
54058.0,STARLINK-5167,PAYLOAD,2024-01-06 01:35:17,15.08836344,0.0001659,53.2186,306.8465,116.5507,243.5655,4.92e-05,4.95e-06,0.0,0 STARLINK-5167,1 54058U 22136H   24006.06617074  .00000495  00000-0  49200-4 0  9996,2 54058  53.2186 306.8465 0001659 116.5507 243.5655 15.08836344 67518,6917.892,95.438,540.904,538.609,0.0
54058.0,STARLINK-5167,PAYLOAD,2024-01-06 06:21:26,15.08839837,0.000143,53.2178,305.9491,103.4819,256.6333,8.2044e-05,1.018e-05,0.0,0 STARLINK-5167,1 54058U 22136H   24006.26488717  .00001018  00000-0  82044-4 0  9993,2 54058  53.2178 305.9491 0001430 103.4819 256.6333 15.08839837 67064,6917.881,95.438,540.735,538.757,0.0
54058.0,STARLINK-5167,PAYLOAD,2024-01-07 04:36:48,15.0885601,0.0001337,53.2185,301.789,61.3966,298.716,0.00022374,3.276e-05,0.0,0 STARLINK-5167,1 54058U 22136H   24007.19223141  .00003276  00000-0  22374-3 0  9991,2 54058  53.2185 301.7890 0001337  61.3966 298.7160 15.08856010 67685,6917.831,95.437,540.621,538.772,0.0
54058.0,STARLINK-5167,PAYLOAD,2024-01-08 02:52:14,15.08836138,0.0001185,53.2194,297.628,94.3378,265.775,-7.0155e-05,-1.404e-05,0.0,0 STARLINK-5167,1 54058U 22136H   24008.11961299 -.00001404  00000-0 -70155-4 0  9991,2 54058  53.2194 297.6280 0001185  94.3378 265.7750 15.08836138 67829,6917.892,95.438,540.577,538.937,0.0
54058.0,STARLINK-5167,PAYLOAD,2024-01-08 04:27:37,15.08836365,0.0001216,53.2195,297.3308,102.0186,258.0943,-6.0025e-05,-1.243e-05,0.0,0 STARLINK-5167,1 54058U 22136H   24008.18585264 -.00001243  00000-0 -60025-4 0  9998,2 54058  53.2195 297.3308 0001216 102.0186 258.0943 15.08836365 67356,6917.891,95.438,540.598,538.915,0.0
54058.0,STARLINK-5167,PAYLOAD,2024-01-09 04:18:24,15.08846677,0.0001448,53.2181,292.8684,72.4973,287.6177,0.00012485,1.7e-05,0.0,0 STARLINK-5167,1 54058U 22136H   24009.17944694  .00001700  00000-0  12485-3 0  9996,2 54058  53.2181 292.8684 0001448  72.4973 287.6177 15.08846677 67982,6917.86,95.437,540.727,538.723,0.0
54058.0,STARLINK-5167,PAYLOAD,2024-01-10 04:09:11,15.08847575,0.0001421,53.2169,288.4071,105.1399,254.975,0.00034654,5.233e-05,0.0,0 STARLINK-5167,1 54058U 22136H   24010.17304797  .00005233  00000-0  34654-3 0  9999,2 54058  53.2169 288.4071 0001421 105.1399 254.9750 15.08847575 68136,6917.857,95.437,540.705,538.739,0.0
54058.0,STARLINK-5167,PAYLOAD,2024-01-11 00:49:12,15.08844814,0.0001582,53.2172,284.5414,113.9007,246.2151,8.7494e-05,1.105e-05,0.0,0 STARLINK-5167,1 54058U 22136H   24011.03416992  .00001105  00000-0  87494-4 0  9991,2 54058  53.2172 284.5414 0001582 113.9007 246.2151 15.08844814 68265,6917.866,95.437,540.825,538.636,0.0
54058.0,STARLINK-5167,PAYLOAD,2024-01-11 03:59:58,15.08844997,0.000161,53.2171,283.9465,117.5646,242.551,9.0184e-05,1.148e-05,0.0,0 STARLINK-5167,1 54058U 22136H   24011.16664917  .00001148  00000-0  90184-4 0  9994,2 54058  53.2171 283.9465 0001610 117.5646 242.5510 15.08844997 67803,6917.865,95.437,540.844,538.616,0.0
54058.0,STARLINK-5167,PAYLOAD,2024-01-11 21:29:13,15.0884127,0.0001837,53.2173,280.6735,123.4809,236.6358,-4.2694e-05,-9.68e-06,0.0,0 STARLINK-5167,1 54058U 22136H   24011.89529145 -.00000968  00000-0 -42694-4 0  9991,2 54058  53.2173 280.6735 0001837 123.4809 236.6358 15.08841270 67914,6917.877,95.437,541.012,538.471,0.0
54058.0,STARLINK-5167,PAYLOAD,2024-01-12 00:39:59,15.08842458,0.000164,53.218,280.0794,110.4798,249.6371,-2.9983e-05,-7.65e-06,0.0,0 STARLINK-5167,1 54058U 22136H   24012.02777129 -.00000765  00000-0 -29983-4 0  9995,2 54058  53.2180 280.0794 0001640 110.4798 249.6371 15.08842458 67936,6917.873,95.437,540.872,538.603,0.0
